STARLINK-5794           
1 56006U 23042W   23321.67558425  .00000947  00000+0  85154-4 0  9997
2 56006  43.0036 316.4313 0000987 279.0634  81.0096 15.02536944 36104
STARLINK-5806           
1 56007U 23042X   23321.67891711  .00001183  00000+0  10267-3 0  9991
2 56007  43.0058 316.4512 0001107 274.0413  86.0303 15.02534049 36105
STARLINK-5803           
1 56008U 23042Y   23321.40411891  .00000473  00000+0  50058-4 0  9994
2 56008  43.0039 317.8360 0000922 264.9228  95.1509 15.02540828 36063
STARLINK-5964           
1 56009U 23042Z   23321.47836798  .00000868  00000+0  79281-4 0  9996
2 56009  43.0038 317.5324 0000883 267.6172  92.4570 15.02541347 36418
STARLINK-5968           
1 56010U 23042AA  23321.67225247  .00000785  00000+0  73176-4 0  9996
2 56010  43.0038 316.4057 0001073 272.5990  87.4730 15.02537181 36105
STARLINK-5936           
1 56011U 23042AB  23321.93854001  .00003130  00000+0  24667-3 0  9999
2 56011  43.0032 302.8139 0001051 265.4522  94.6200 15.02538630 36289
STARLINK-5940           
1 56012U 23042AC  23321.94186699  .00002242  00000+0  18095-3 0  9993
2 56012  43.0036 302.8381 0001204 269.6795  90.3909 15.02539619 36288
STARLINK-5941           
1 56013U 23042AD  23321.33542102 -.00004196  00000+0 -29562-3 0  9995
2 56013  43.0047 318.1773 0000693 275.4309  84.6454 15.02555044 36059
STARLINK-5942           
1 56014U 23042AE  23321.93521079  .00001239  00000+0  10676-3 0  9991
2 56014  43.0032 302.7891 0001154 270.7964  89.2746 15.02531571 36281
STARLINK-5939           
1 56015U 23042AF  23321.94075975  .00000835  00000+0  76899-4 0  9993
2 56015  43.0043 302.8321 0001012 269.9216  90.1510 15.02538900 36289
STARLINK-5943           
1 56016U 23042AG  23321.45321486  .00001517  00000+0  12736-3 0  9998
2 56016  43.0044 305.1902 0000996 289.3347  70.7387 15.02541141 36213
STARLINK-5934           
1 56017U 23042AH  23321.66374882  .00001168  00000+0  10153-3 0  9993
2 56017  43.0018 304.1922 0001112 266.0289  94.0426 15.02534715 36249
STARLINK-5945           
1 56018U 23042AJ  23321.65487137  .00001620  00000+0  13494-3 0  9995
2 56018  43.0043 304.1232 0001200 275.6268  84.4437 15.02534405 36244
STARLINK-5949           
1 56019U 23042AK  23321.66707908  .00000729  00000+0  69025-4 0  9999
2 56019  43.0040 304.2172 0001101 278.8592  81.2126 15.02535165 36245
STARLINK-5912           
1 56020U 23042AL  23321.45876429  .00002743  00000+0  21804-3 0  9993
2 56020  43.0036 305.2325 0001156 275.1352  84.9358 15.02540860 36219
STARLINK-5907           
1 56021U 23042AM  23321.66041712  .00001428  00000+0  12076-3 0  9996
2 56021  43.0042 304.1650 0001129 274.4016  85.6697 15.02537320 36249
STARLINK-5783           
1 56022U 23042AN  23321.64378079  .00006105  00000+0  46639-3 0  9993
2 56022  43.0027 304.0389 0001301 274.3104  85.7590 15.02551472 36247
STARLINK-5771           
1 56023U 23042AP  23321.91523413  .00001350  00000+0  11500-3 0  9994
2 56023  43.0033 302.6351 0001051 255.7102 104.3624 15.02534171 36288
STARLINK-5772           
1 56024U 23042AQ  23321.96728072  .00002684  00000+0  21369-3 0  9993
2 56024  43.0023 302.1663 0000941 269.9304  90.1431 15.02536862 36295
STARLINK-5766           
1 56025U 23042AR  23321.94409112 -.00000603  00000+0 -29611-4 0  9993
2 56025  43.0038 302.8443 0001127 268.9641  91.1073 15.02530632 36286
STARLINK-5770           
1 56026U 23042AS  23321.64044082  .00000110  00000+0  23185-4 0  9993
2 56026  43.0031 304.0139 0000898 268.1868  91.8871 15.02532452 36244
STARLINK-5777           
1 56027U 23042AT  23321.44655473  .00002175  00000+0  17601-3 0  9992
2 56027  43.0027 305.1400 0001107 271.7039  88.3677 15.02539147 36217
STARLINK-5779           
1 56028U 23042AU  23321.29694441  .00001438  00000+0  12149-3 0  9997
2 56028  43.0037 305.7368 0001248 274.2836  85.7864 15.02544585 36195
STARLINK-5774           
1 56029U 23042AV  23321.63822289  .00002239  00000+0  18077-3 0  9995
2 56029  43.0038 303.9969 0000779 271.2795  88.7958 15.02529059 36245
STARLINK-5781           
1 56030U 23042AW  23321.95838807  .00007478  00000+0  56774-3 0  9991
2 56030  43.0037 302.0974 0001198 269.4088  90.6617 15.02558597 36290
STARLINK-5785           
1 56031U 23042AX  23321.96394985  .00000807  00000+0  74807-4 0  9994
2 56031  43.0040 302.1389 0000997 273.9911  86.0817 15.02538382 36298
STARLINK-5786           
1 56032U 23042AY  23321.94952326  .00001384  00000+0  11756-3 0  9996
2 56032  43.0038 302.0300 0001071 268.8460  91.2260 15.02526736 36294
STARLINK-5784           
1 56033U 23042AZ  23321.95285386  .00013779  00000+0  10328-2 0  9997
2 56033  43.0042 302.0544 0000815 272.4917  87.5832 15.02545510 36297
STARLINK-5782           
1 56034U 23042BA  23321.94730242  .00000808  00000+0  74887-4 0  9994
2 56034  43.0049 302.0110 0001019 273.6815  86.3911 15.02531561 36297
STARLINK-5792           
1 56035U 23042BB  23321.95618034  .00004185  00000+0  32457-3 0  9998
2 56035  43.0016 302.0825 0000693 286.0161  74.0605 15.02553236 36291
STARLINK-5790           
1 56036U 23042BC  23321.94508531  .00001307  00000+0  11183-3 0  9994
2 56036  43.0053 301.9923 0001145 267.2813  92.7898 15.02529778 36293
STARLINK-5758           
1 56037U 23042BD  23321.90660255  .00001718  00000+0  14222-3 0  9996
2 56037  43.0039 289.5059 0001116 274.6646  85.4069 15.02535002 36435
STARLINK-5793           
1 56038U 23042BE  23321.94619254  .00000480  00000+0  50626-4 0  9998
2 56038  43.0048 302.0023 0001116 276.1624  83.9091 15.02529806 36298
STARLINK-5795           
1 56039U 23042BF  23321.90216627  .00000261  00000+0  34409-4 0  9990
2 56039  43.0049 289.4766 0000641 264.8616  95.2153 15.02531766 36438
STARLINK-5798           
1 56040U 23042BG  23321.63513883  .00000857  00000+0  78500-4 0  9997
2 56040  43.0047 290.9072 0001215 273.9206  86.1498 15.02537441 36391
STARLINK-5800           
1 56041U 23042BH  23321.96419843  .00001624  00000+0  13524-3 0  9992
2 56041  43.0043 289.0757 0001174 274.5672  85.5036 15.02538366 36449
STARLINK-6102           
1 56093U 23046A   23321.72221473  .00001892  00000+0  15507-3 0  9997
2 56093  43.0049  59.7587 0001188 272.1386  87.9320 15.02541233 36401
STARLINK-6109           
1 56094U 23046B   23321.71333387  .00000537  00000+0  54794-4 0  9992
2 56094  43.0056  59.6944 0001206 267.8169  92.2535 15.02538528 35259
STARLINK-6090           
1 56095U 23046C   23321.65351320 -.00000362  00000+0 -11713-4 0  9995
2 56095  43.0050  60.1009 0001144 273.2233  86.8479 15.02543576 35241
STARLINK-6089           
1 56096U 23046D   23321.77759140  .00001910  00000+0  15641-3 0  9992
2 56096  43.0049  59.3168 0001299 270.0740  89.9953 15.02539954 35263
STARLINK-6077           
1 56097U 23046E   23321.84287357 -.00000696  00000+0 -36432-4 0  9991
2 56097  43.0056   6.8814 0001051 279.6431  80.4293 15.02539206 35875
STARLINK-6088           
1 56098U 23046F   23321.65018470  .00000793  00000+0  73795-4 0  9998
2 56098  43.0057  60.0815 0001290 269.4556  90.6138 15.02539897 35248
STARLINK-6093           
1 56099U 23046G   23321.77204241  .00002045  00000+0  16642-3 0  9994
2 56099  43.0050  59.2751 0001292 277.1128  82.9567 15.02540148 35267
STARLINK-6076           
1 56100U 23046H   23321.76872197  .00012993  00000+0  97430-3 0  9994
2 56100  43.0042  59.2509 0001428 274.5367  85.5313 15.02569033 35261
STARLINK-6095           
1 56101U 23046J   23321.63353485  .00000871  00000+0  79571-4 0  9994
2 56101  43.0051  59.9549 0001210 263.9807  96.0898 15.02539735 35242
STARLINK-6075           
1 56102U 23046K   23321.77426057  .00004536  00000+0  35054-3 0  9995
2 56102  43.0047  59.2915 0001432 268.0789  91.9890 15.02545700 35266
STARLINK-6096           
1 56103U 23046L   23321.76316002  .00008953  00000+0  67681-3 0  9991
2 56103  43.0040  59.2068 0001289 272.7348  87.3346 15.02546395 35268
STARLINK-6062           
1 56104U 23046M   23321.76537936  .00004690  00000+0  36197-3 0  9995
2 56104  43.0044  59.2185 0001293 270.3805  89.6889 15.02545059 35263
STARLINK-6066           
1 56105U 23046N   23321.75095389  .00000726  00000+0  68794-4 0  9991
2 56105  43.0052  59.1159 0001266 275.7089  84.3609 15.02538824 35260
STARLINK-6078           
1 56106U 23046P   23321.75761556  .00001789  00000+0  14743-3 0  9992
2 56106  43.0045  59.1590 0001312 280.1887  79.8807 15.02539224 35264
STARLINK-6030           
1 56107U 23046Q   23321.74540188  .00004671  00000+0  36055-3 0  9991
2 56107  43.0047  59.0693 0001270 276.5300  83.5397 15.02545533 35268
STARLINK-6081           
1 56108U 23046R   23321.75983296  .00001148  00000+0  99999-4 0  9997
2 56108  43.0055  59.1767 0001210 275.1039  84.9665 15.02540852 35261
STARLINK-6083           
1 56109U 23046S   23321.74873093  .00001935  00000+0  15822-3 0  9996
2 56109  43.0047  59.0923 0001308 268.3538  91.7154 15.02542026 35266
STARLINK-6082           
1 56110U 23046T   23321.62132252 -.00001316  00000+0 -82321-4 0  9994
2 56110  43.0046  59.8613 0001171 259.9339 100.1371 15.02551896 35243
STARLINK-6084           
1 56111U 23046U   23321.73430343  .00004288  00000+0  33223-3 0  9994
2 56111  43.0048  58.9838 0001321 271.5807  88.4884 15.02544933 35265
STARLINK-6080           
1 56112U 23046V   23321.73985134  .00002173  00000+0  17583-3 0  9990
2 56112  43.0050  59.0272 0001306 269.4847  90.5846 15.02543060 35268
STARLINK-6113           
1 56113U 23046W   23321.73097289  .00007178  00000+0  54577-3 0  9990
2 56113  43.0048  58.9586 0001520 272.8414  87.2254 15.02545784 35269
STARLINK-6103           
1 56114U 23046X   23321.74318184  .00002562  00000+0  20459-3 0  9996
2 56114  43.0046  59.0494 0001306 273.0928  86.9765 15.02543409 35268
STARLINK-6101           
1 56115U 23046Y   23321.72542321  .00003181  00000+0  25042-3 0  9998
2 56115  43.0044  58.9131 0001347 269.8420  90.2268 15.02544638 35269
